{"type":"FeatureCollection","features":[{"type":"Feature","properties":{"crossing":"traffic_signals","highway":"crossing"},"geometry":{"type":"Point","coordinates":[-99.1408733,19.4341115]}},{"type":"Feature","properties":{"amenity":"parking","name":"Estacionamiento subterr\u00e1neo Bellas Artes","noexit":"yes"},"geometry":{"type":"Point","coordinates":[-99.1420063,19.4344227]}},{"type":"Feature","properties":{"highway":"traffic_signals","traffic_signals":"signal"},"geometry":{"type":"Point","coordinates":[-99.1380011,19.4357154]}},{"type":"Feature","properties":{"highway":"traffic_signals","traffic_signals":"signal"},"geometry":{"type":"Point","coordinates":[-99.1378821,19.4365585]}},{"type":"Feature","properties":{"crossing":"traffic_signals","highway":"traffic_signals"},"geometry":{"type":"Point","coordinates":[-99.1424977,19.4364615]}},{"type":"Feature","properties":{"crossing":"traffic_signals","highway":"crossing"},"geometry":{"type":"Point","coordinates":[-99.140694,19.4362556]}},{"type":"Feature","properties":{"highway":"street_lamp","lamp_type":"electric","name":"Museo del Ej\u00e9rcito y Fuerza A\u00e9rea Mexicanos Bethlemitas","tourism":"museum"},"geometry":{"type":"Point","coordinates":[-99.1412514,19.4344859]}},{"type":"Feature","properties":{"amenity":"restaurant","cuisine":"mexican","name":"La Casa del Pavo"},"geometry":{"type":"Point","coordinates":[-99.137356,19.4326846]}},{"type":"Feature","properties":{"bus":"yes","highway":"bus_stop","public_transport":"platform"},"geometry":{"type":"Point","coordinates":[-99.1405214,19.4364439]}},{"type":"Feature","properties":{"amenity":"bank","brand":"Scotiabank","brand:wikidata":"Q451476","brand:wikipedia":"en:Scotiabank","name":"Scotiabank"},"geometry":{"type":"Point","coordinates":[-99.136194,19.4331215]}},{"type":"Feature","properties":{"amenity":"fast_food","brand":"Burger King","brand:wikidata":"Q177054","brand:wikipedia":"en:Burger King","cuisine":"burger","name":"Burger King","takeaway":"yes","website":"https:\/\/www.burgerking.com.mx"},"geometry":{"type":"Point","coordinates":[-99.1384532,19.4336182]}},{"type":"Feature","properties":{"amenity":"bank","atm":"yes","brand":"BBVA","brand:wikidata":"Q806189","brand:wikipedia":"en:Banco Bilbao Vizcaya Argentaria","name":"BBVA","official_name":"Banco Bilbao Vizcaya Argentaria"},"geometry":{"type":"Point","coordinates":[-99.1352333,19.4339947]}},{"type":"Feature","properties":{"alt_name":"Restaurante Bar La \u00d3pera","amenity":"pub","name":"Cantina La \u00d3pera","source":"Survey","wifi":"no"},"geometry":{"type":"Point","coordinates":[-99.1393309,19.4347251]}},{"type":"Feature","properties":{"addr:city":"Ciudad de M\u00e9xico","addr:housenumber":"52","addr:street":"5 de Mayo","amenity":"restaurant","name":"El Popular","opening_hours":"24\/7","source":"Survey","wifi":"no"},"geometry":{"type":"Point","coordinates":[-99.1352742,19.4342234]}},{"type":"Feature","properties":{"amenity":"restaurant","cuisine":"regional","name":"La Pagoda","opening_hours":"24\/7","source":"Survey","wifi":"no"},"geometry":{"type":"Point","coordinates":[-99.1394688,19.4347486]}},{"type":"Feature","properties":{"alt_name":"El Corona","amenity":"pub","cuisine":"mexican","name":"Sal\u00f3n Corona \"Filomeno Mata\"","source":"Survey","wifi":"no"},"geometry":{"type":"Point","coordinates":[-99.1392955,19.4341765]}},{"type":"Feature","properties":{"amenity":"bicycle_rental","bicycle_parking":"ground_slots","brand":"Ecobici","brand:wikidata":"Q5817067","brand:wikipedia":"es:Ecobici (Ciudad de M\u00e9xico)","capacity":"20","name":"Ecobici #52 Hidalgo - Trujano","network":"Ecobici","operator":"Gobierno de la Ciudad de M\u00e9xico","ref":"52"},"geometry":{"type":"Point","coordinates":[-99.1421939,19.4363105]}},{"type":"Feature","properties":{"amenity":"bank","brand":"Inbursa","brand:wikidata":"Q731123","brand:wikipedia":"es:Grupo Financiero Inbursa","name":"Inbursa"},"geometry":{"type":"Point","coordinates":[-99.1407023,19.4340266]}},{"type":"Feature","properties":{"access":"customers","amenity":"bicycle_rental","bicycle_parking":"ground_slots","brand":"Ecobici","brand:wikidata":"Q5817067","name":"EcoBici","network":"Ecobici","operator":"Gobierno de la Ciudad de M\u00e9xico"},"geometry":{"type":"Point","coordinates":[-99.1395088,19.4327999]}},{"type":"Feature","properties":{"amenity":"bicycle_rental","brand":"Ecobici","brand:wikidata":"Q5817067","name":"EcoBici","network":"Ecobici","operator":"Gobierno de la Ciudad de M\u00e9xico"},"geometry":{"type":"Point","coordinates":[-99.1398008,19.4364091]}},{"type":"Feature","properties":{"access":"customers","amenity":"bicycle_parking","bicycle_parking":"rack","name":"EcoBici","operator":"EcoBici"},"geometry":{"type":"Point","coordinates":[-99.1374967,19.4373551]}},{"type":"Feature","properties":{"access":"customers","amenity":"bicycle_rental","brand":"Ecobici","brand:wikidata":"Q5817067","capacity":"35","name":"Ecobici #93 Palma Norte - Rep\u00fablica De Cuba","network":"Ecobici","operator":"Gobierno de la Ciudad de M\u00e9xico","ref":"93"},"geometry":{"type":"Point","coordinates":[-99.1347658,19.436803]}},{"type":"Feature","properties":{"amenity":"bicycle_rental","brand":"Ecobici","brand:wikidata":"Q5817067","capacity":"15","name":"Ecobici #88 5 DE Mayo - Palma","network":"Ecobici","operator":"Gobierno de la Ciudad de M\u00e9xico","ref":"88"},"geometry":{"type":"Point","coordinates":[-99.1351983,19.4337909]}},{"type":"Feature","properties":{"amenity":"restaurant","cuisine":"regional","name":"Los Girasoles","website":"http:\/\/restaurantelosgirasoles.com","wheelchair":"no"},"geometry":{"type":"Point","coordinates":[-99.1389361,19.4360374]}},{"type":"Feature","properties":{"amenity":"restaurant","name":"Taco Inn"},"geometry":{"type":"Point","coordinates":[-99.1389576,19.43594]}},{"type":"Feature","properties":{"addr:city":"Ciudad de M\u00e9xico","addr:housenumber":"10","addr:street":"Isabel la Catolica","amenity":"restaurant","cuisine":"taco","fixme":"This is the correct block and side of the street, but the location is approximate.","name":"El Cuatro20","source":"survey, website to confirm spelling of name"},"geometry":{"type":"Point","coordinates":[-99.1359636,19.4347509]}},{"type":"Feature","properties":{"crossing":"traffic_signals","highway":"crossing"},"geometry":{"type":"Point","coordinates":[-99.1414412,19.4362733]}},{"type":"Feature","properties":{"crossing":"traffic_signals","highway":"crossing"},"geometry":{"type":"Point","coordinates":[-99.1414203,19.4363958]}},{"type":"Feature","properties":{"highway":"traffic_signals","traffic_signals":"signal"},"geometry":{"type":"Point","coordinates":[-99.136153,19.4342193]}},{"type":"Feature","properties":{"highway":"traffic_signals","traffic_signals":"signal"},"geometry":{"type":"Point","coordinates":[-99.1381891,19.4344845]}},{"type":"Feature","properties":{"amenity":"bureau_de_change","name":"La Casa de la Moneda"},"geometry":{"type":"Point","coordinates":[-99.1384504,19.4367222]}},{"type":"Feature","properties":{"amenity":"restaurant","brand":"Pizza Hut","brand:wikidata":"Q191615","brand:wikipedia":"en:Pizza Hut","cuisine":"pizza","name":"Pizza Hut"},"geometry":{"type":"Point","coordinates":[-99.1353394,19.4338158]}},{"type":"Feature","properties":{"amenity":"cafe","brand":"Starbucks","brand:wikidata":"Q37158","brand:wikipedia":"en:Starbucks","cuisine":"coffee_shop","name":"Starbucks","official_name":"Starbucks Coffee","takeaway":"yes"},"geometry":{"type":"Point","coordinates":[-99.136783,19.4336348]}},{"type":"Feature","properties":{"bench":"no","bin":"no","bus":"yes","highway":"bus_stop","lit":"yes","name":"Rep\u00fablica de Chile","public_transport":"platform","shelter":"no"},"geometry":{"type":"Point","coordinates":[-99.1354332,19.4379656]}},{"type":"Feature","properties":{"bench":"no","bin":"no","bus":"yes","highway":"bus_stop","lit":"yes","name":"Rep\u00fablica de Chile","public_transport":"platform","shelter":"no"},"geometry":{"type":"Point","coordinates":[-99.1356971,19.4379263]}},{"type":"Feature","properties":{"bus":"yes","highway":"bus_stop","local_ref":"Parada Metrob\u00fas. L\u00ednea 4. Ruta Norte","name":"Bellas Artes","public_transport":"platform"},"geometry":{"type":"Point","coordinates":[-99.1416798,19.4363714]}},{"type":"Feature","properties":{"amenity":"cafe","brand":"Starbucks","brand:wikidata":"Q37158","brand:wikipedia":"en:Starbucks","cuisine":"coffee_shop","name":"Starbucks","official_name":"Starbucks Coffee","takeaway":"yes"},"geometry":{"type":"Point","coordinates":[-99.138514,19.4336642]}},{"type":"Feature","properties":{"amenity":"restaurant","cuisine":"argentinian;italian","name":"Argentalia"},"geometry":{"type":"Point","coordinates":[-99.1397109,19.4327043]}},{"type":"Feature","properties":{"amenity":"fast_food","name":"Pirates Burgers"},"geometry":{"type":"Point","coordinates":[-99.1367703,19.4321474]}},{"type":"Feature","properties":{"amenity":"fast_food","name":"Pirates Burgers"},"geometry":{"type":"Point","coordinates":[-99.1382103,19.4323557]}},{"type":"Feature","properties":{"amenity":"fast_food","name":"Casa Churra"},"geometry":{"type":"Point","coordinates":[-99.1391907,19.4326801]}},{"type":"Feature","properties":{"amenity":"fast_food","name":"Don Maderito"},"geometry":{"type":"Point","coordinates":[-99.138247,19.4336143]}},{"type":"Feature","properties":{"amenity":"post_office","brand":"DHL","brand:wikidata":"Q489815","brand:wikipedia":"en:DHL","name":"DHL","operator":"DHL","operator:type":"private","operator:wikidata":"Q489815","operator:wikipedia":"en:DHL"},"geometry":{"type":"Point","coordinates":[-99.1348861,19.4333451]}},{"type":"Feature","properties":{"amenity":"cafe","brand":"Starbucks","brand:wikidata":"Q37158","brand:wikipedia":"en:Starbucks","cuisine":"coffee_shop","name":"Starbucks","official_name":"Starbucks Coffee","takeaway":"yes"},"geometry":{"type":"Point","coordinates":[-99.1349765,19.4319154]}},{"type":"Feature","properties":{"amenity":"atm"},"geometry":{"type":"Point","coordinates":[-99.1360529,19.4320755]}},{"type":"Feature","properties":{"amenity":"restaurant","cuisine":"chinese","name":"El Ave F\u00e9nix"},"geometry":{"type":"Point","coordinates":[-99.1403376,19.4328207]}},{"type":"Feature","properties":{"amenity":"atm","brand":"Banorte","brand:wikidata":"Q806914","name":"Banorte","operator":"Banorte","operator:wikidata":"Q806914"},"geometry":{"type":"Point","coordinates":[-99.1369564,19.4321749]}},{"type":"Feature","properties":{"amenity":"restaurant","name":"Sal\u00f3n Corona"},"geometry":{"type":"Point","coordinates":[-99.1374687,19.4322458]}},{"type":"Feature","properties":{"amenity":"cafe","name":"Cielito Querido Caf\u00e9"},"geometry":{"type":"Point","coordinates":[-99.14014,19.4329179]}},{"type":"Feature","properties":{"amenity":"bicycle_parking","covered":"no"},"geometry":{"type":"Point","coordinates":[-99.1344921,19.4319909]}},{"type":"Feature","properties":{"amenity":"restaurant","diet:vegetarian":"only","name":"Restaurante Vegetariano","opening_hours":"Mo-Su 12:00-18:00"},"geometry":{"type":"Point","coordinates":[-99.137451,19.4330489]}},{"type":"Feature","properties":{"amenity":"restaurant","name":"Pasag\u00fcero"},"geometry":{"type":"Point","coordinates":[-99.1374764,19.4329158]}},{"type":"Feature","properties":{"amenity":"restaurant","name":"La Isla del drag\u00f3n"},"geometry":{"type":"Point","coordinates":[-99.1372938,19.4329286]}},{"type":"Feature","properties":{"amenity":"restaurant","name":"Los Chilangos"},"geometry":{"type":"Point","coordinates":[-99.1372869,19.4339712]}},{"type":"Feature","properties":{"amenity":"restaurant","cuisine":"argentinian","name":"Cantina Buenos Aires"},"geometry":{"type":"Point","coordinates":[-99.1372698,19.4341849]}},{"type":"Feature","properties":{"amenity":"restaurant","name":"La Petite Cr\u00e9pe"},"geometry":{"type":"Point","coordinates":[-99.136122,19.434878]}},{"type":"Feature","properties":{"amenity":"restaurant","cuisine":"mexican","name":"El 9 de Isabel"},"geometry":{"type":"Point","coordinates":[-99.1362427,19.4348377]}},{"type":"Feature","properties":{"amenity":"bar","name":"R\u00edo de la Plata","opening_hours":"Mo-Su 08:00-18:00; Apr 10-15,Aug,Dec 25: off; Jun: 08:00-14:00","operator":"R\u00edo de la Plata","smoking":"no","wheelchair":"no"},"geometry":{"type":"Point","coordinates":[-99.1376782,19.4372791]}},{"type":"Feature","properties":{"amenity":"fast_food","brand":"Subway","brand:wikidata":"Q244457","brand:wikipedia":"en:Subway (restaurant)","cuisine":"sandwich","name":"Subway","takeaway":"yes"},"geometry":{"type":"Point","coordinates":[-99.1350318,19.4320631]}},{"type":"Feature","properties":{"amenity":"pub","name":"La Dominica"},"geometry":{"type":"Point","coordinates":[-99.135497,19.4378521]}},{"type":"Feature","properties":{"addr:city":"Ciudad de M\u00e9xico","addr:housenumber":"58","addr:street":"Calle Donceles","amenity":"bar","name":"UTA","opening_hours":"21:00-03:00","smoking":"isolated"},"geometry":{"type":"Point","coordinates":[-99.1355556,19.4363153]}},{"type":"Feature","properties":{"addr:city":"Ciudad de M\u00e9xico","addr:housenumber":"56","addr:street":"Calle Donceles","amenity":"restaurant","cuisine":"pizza","name":"UTA Pizzer\u00eda","opening_hours":"15:00-21:00"},"geometry":{"type":"Point","coordinates":[-99.1356764,19.4363457]}},{"type":"Feature","properties":{"addr:city":"Centro","addr:housenumber":"28","addr:street":"Calle Tacuba","amenity":"cafe","cuisine":"regional","internet_access":"no","name":"Caf\u00e9 de Tacuba","opening_hours":"08:00-23:30","phone":"+52 55 55212048"},"geometry":{"type":"Point","coordinates":[-99.1376076,19.4357184]}},{"type":"Feature","properties":{"addr:city":"Ciudad de M\u00e9xico","addr:housenumber":"70-72","addr:postcode":"06010","addr:street":"Belisario Dominguez","amenity":"restaurant","cuisine":"mexican;italian","name":"La Hoster\u00eda de Santo Domingo","opening_hours":"Mo-Sa 07:00-22:00; Su 08:00-22:00","phone":"525555265276"},"geometry":{"type":"Point","coordinates":[-99.1349825,19.4379877]}},{"type":"Feature","properties":{"addr:city":"Ciudad de M\u00e9xico","addr:housenumber":"32","addr:postcode":"06000","addr:street":"Palma","amenity":"restaurant","cuisine":"mexican","name":"El Rey del Pavo","opening_hours":"Mo-Sa 11:00-18:45","phone":"55182810","website":"https:\/\/elreydelpavo.com.mx\/"},"geometry":{"type":"Point","coordinates":[-99.1352045,19.4325815]}},{"type":"Feature","properties":{"addr:housenumber":"71","addr:street":"Francisco I. Madero","amenity":"cafe","cuisine":"ice_cream","name":"Helados Santa Clara","operator":"Santa Clara","phone":"5521 2581"},"geometry":{"type":"Point","coordinates":[-99.1374793,19.4335422]}},{"type":"Feature","properties":{"addr:city":"Ciudad de M\u00e9xico","addr:housenumber":"60","addr:street":"16 de Septiembre","amenity":"cafe","cuisine":"ice_cream","name":"Helados Santa Clara","operator":"Santa Clara"},"geometry":{"type":"Point","coordinates":[-99.1370059,19.4321776]}},{"type":"Feature","properties":{"amenity":"restaurant","brand":"Vips","brand:wikidata":"Q48783378","brand:wikipedia":"es:Vips","cuisine":"mexican","name":"Vips"},"geometry":{"type":"Point","coordinates":[-99.1365647,19.4334147]}},{"type":"Feature","properties":{"amenity":"restaurant","brand":"Vips","brand:wikidata":"Q48783378","brand:wikipedia":"es:Vips","cuisine":"mexican","name":"Vips"},"geometry":{"type":"Point","coordinates":[-99.1358757,19.4334977]}},{"type":"Feature","properties":{"amenity":"bar","cuisine":"mexican","name":"La Pelusa","opening_hours":"Mo-Su 23:00-11:00"},"geometry":{"type":"Point","coordinates":[-99.141822,19.43791]}},{"type":"Feature","properties":{"amenity":"bar","name":"Las Pecosas"},"geometry":{"type":"Point","coordinates":[-99.1385915,19.4373975]}},{"type":"Feature","properties":{"amenity":"fast_food","name":"Tacos de Canasta Los Especiales","name:es":"Tacos de Canasta Los Especiales"},"geometry":{"type":"Point","coordinates":[-99.1344525,19.4330736]}},{"type":"Feature","properties":{"addr:city":"Ciudad de M\u00e9xico","addr:housenumber":"10","addr:street":"5 de Mayo","amenity":"restaurant","name":"Restaurante 5M","name:es":"Restaurante 5M"},"geometry":{"type":"Point","coordinates":[-99.1399749,19.4348006]}},{"type":"Feature","properties":{"amenity":"restaurant","name":"Azul Historico","name:es":"azul historico"},"geometry":{"type":"Point","coordinates":[-99.136196,19.4328886]}},{"type":"Feature","properties":{"addr:city":"Ciudad de M\u00e9xico","addr:housenumber":"32","addr:postcode":"57210","addr:street":"Calle Ignacio Allende","amenity":"bar","cuisine":"regional","internet_access":"wlan","name":"Los Jarritos","name:es":"Los Jarritos","opening_hours":"Tu-Sa 12:00-02:00"},"geometry":{"type":"Point","coordinates":[-99.1379254,19.4367668]}},{"type":"Feature","properties":{"addr:city":"Ciudad de M\u00e9xico","addr:housenumber":"5","addr:postcode":"06000","addr:street":"Calle 5 de Mayo","amenity":"restaurant","cuisine":"mexican","name":"Arandas Taquer\u00eda","name:es":"Taqueria Arandas","payment:debit_cards":"yes"},"geometry":{"type":"Point","coordinates":[-99.1357777,19.4343005]}},{"type":"Feature","properties":{"highway":"street_lamp","lamp_type":"electric"},"geometry":{"type":"Point","coordinates":[-99.1416522,19.4345237]}},{"type":"Feature","properties":{"addr:city":"Ciudad de M\u00e9xico","addr:housenumber":"23","addr:street":"Palma","amenity":"restaurant","cuisine":"mexican","leaf_type":"broadleaved","name":"El Cardenal","natural":"tree","phone":"+52 55 5521 3080","smoking":"no","website":"https:\/\/www.restauranteelcardenal.com\/","wheelchair":"yes"},"geometry":{"type":"Point","coordinates":[-99.1352776,19.4336275]}},{"type":"Feature","properties":{"addr:housenumber":"14","addr:postcode":"06000","addr:street":"Avenida Ju\u00e1rez","amenity":"cafe","description":"cafe in Sears building with a great view","name":"Finca Don Porfirio"},"geometry":{"type":"Point","coordinates":[-99.1412926,19.4340865]}},{"type":"Feature","properties":{"addr:housenumber":"2","addr:street":"L\u00e1zaro C\u00e1rdenas","amenity":"cafe","name":"Cafe de la Gran Cuidad","name:pl":"Kawiarnia na 9 pietrze"},"geometry":{"type":"Point","coordinates":[-99.1407354,19.4339366]}},{"type":"Feature","properties":{"amenity":"cafe"},"geometry":{"type":"Point","coordinates":[-99.1345777,19.4331227]}},{"type":"Feature","properties":{"amenity":"restaurant","name":"Tlaquepaque Taquer\u00eda"},"geometry":{"type":"Point","coordinates":[-99.1414137,19.432658]}},{"type":"Feature","properties":{"addr:housenumber":"39","addr:street":"Francisco I. Madero","amenity":"fast_food","brand":"McDonald's","brand:wikidata":"Q38076","brand:wikipedia":"en:McDonald's","cuisine":"burger","internet_access":"wlan","name":"McDonald's","takeaway":"yes"},"geometry":{"type":"Point","coordinates":[-99.1372063,19.433496]}},{"type":"Feature","properties":{"addr:housenumber":"74A","addr:street":"Calle Tacuba","amenity":"fast_food","brand":"Domino's","brand:wikidata":"Q839466","cuisine":"pizza","name":"Domino's","name:es":"Domino's Pizza","takeaway":"yes"},"geometry":{"type":"Point","coordinates":[-99.135377,19.4354315]}},{"type":"Feature","properties":{"addr:housenumber":"6","addr:street":"Isabel la Catolica","amenity":"fast_food","name":"Taqueria Tlaquepaque","name:es":"Taqueria Tlaquepaque"},"geometry":{"type":"Point","coordinates":[-99.1363094,19.4340941]}},{"type":"Feature","properties":{"addr:city":"Ciudad de M\u00e9xico","addr:housenumber":"10D","addr:street":"5 de Mayo","amenity":"restaurant","name":"Los Callejeros"},"geometry":{"type":"Point","coordinates":[-99.139597,19.4347617]}},{"type":"Feature","properties":{"amenity":"nightclub","name":"Normandie","name:es":"Normandie"},"geometry":{"type":"Point","coordinates":[-99.1421979,19.4331613]}},{"type":"Feature","properties":{"amenity":"restaurant","name":"Salon Corona","name:es":"Salon Corona"},"geometry":{"type":"Point","coordinates":[-99.1396769,19.4338866]}},{"type":"Feature","properties":{"amenity":"bicycle_rental","brand":"Ecobici","brand:wikidata":"Q5817067","capacity":"18","name":"Ecobici #65 Marconi - Tacuba","network":"Ecobici","operator":"Gobierno de la Ciudad de M\u00e9xico","ref":"65"},"geometry":{"type":"Point","coordinates":[-99.1398807,19.4361442]}},{"type":"Feature","properties":{"amenity":"bicycle_rental","brand":"Ecobici","brand:wikidata":"Q5817067","capacity":"14","name":"Ecobici #55 5 De Mayo - Bolivar","network":"Ecobici","operator":"Gobierno de la Ciudad de M\u00e9xico","ref":"55"},"geometry":{"type":"Point","coordinates":[-99.1380408,19.4343912]}},{"type":"Feature","properties":{"addr:housenumber":"2","addr:street":"Calle Ignacio Allende","amenity":"pub","name":"Terraza Tacuba Brewery"},"geometry":{"type":"Point","coordinates":[-99.1381014,19.4358238]}},{"type":"Feature","properties":{"alt_name":"Dunkin' Donuts","amenity":"fast_food","brand":"Dunkin'","brand:wikidata":"Q847743","cuisine":"donut;coffee_shop","name":"Dunkin'","takeaway":"yes"},"geometry":{"type":"Point","coordinates":[-99.1399516,19.4340697]}},{"type":"Feature","properties":{"amenity":"cafe","brand":"Starbucks","brand:wikidata":"Q37158","brand:wikipedia":"en:Starbucks","cuisine":"coffee_shop","name":"Starbucks","official_name":"Starbucks Coffee","takeaway":"yes"},"geometry":{"type":"Point","coordinates":[-99.1389042,19.4344201]}},{"type":"Feature","properties":{"bus":"yes","highway":"bus_stop","name":"Bellas Artes","network":"Servicio de Transportes El\u00e9ctricos","operator":"Troleb\u00fas","public_transport":"platform"},"geometry":{"type":"Point","coordinates":[-99.140399,19.436719]}},{"type":"Feature","properties":{"amenity":"community_centre","name":"F\u00e1brica Digital El Rule","operator":"Secretar\u00eda de Cultura de la Ciudad de M\u00e9xico","website":"http:\/\/www.fdrule.cdmx.gob.mx"},"geometry":{"type":"Point","coordinates":[-99.1407449,19.4335491]}},{"type":"Feature","properties":{"amenity":"fast_food","name":"Tortas El Jefe"},"geometry":{"type":"Point","coordinates":[-99.135135,19.4346036]}},{"type":"Feature","properties":{"bus":"yes","highway":"bus_stop","name":"Santa Veracruz","network":"Servicio de Transportes El\u00e9ctricos","operator":"Troleb\u00fas","public_transport":"platform"},"geometry":{"type":"Point","coordinates":[-99.140531,19.437097]}},{"type":"Feature","properties":{"amenity":"bar","name":"La Gioconda"},"geometry":{"type":"Point","coordinates":[-99.1392823,19.4342783]}},{"type":"Feature","properties":{"amenity":"restaurant","name":"Sushi Roll"},"geometry":{"type":"Point","coordinates":[-99.1392254,19.4344219]}},{"type":"Feature","properties":{"highway":"street_lamp"},"geometry":{"type":"Point","coordinates":[-99.142559,19.4345027]}},{"type":"Feature","properties":{"highway":"street_lamp"},"geometry":{"type":"Point","coordinates":[-99.1423023,19.4344628]}},{"type":"Feature","properties":{"amenity":"bar","name":"Nonsolo","opening_hours":"Mo-Su 09:00-22:00"},"geometry":{"type":"Point","coordinates":[-99.137483,19.4327968]}},{"type":"Feature","properties":{"addr:housenumber":"57","addr:street":"Francisco I. Madero","amenity":"bar","name":"Hilaria Gastrobar","phone":"5555121559"},"geometry":{"type":"Point","coordinates":[-99.1356127,19.4332544]}},{"type":"Feature","properties":{"amenity":"bank","brand":"Banorte","brand:wikidata":"Q806914","brand:wikipedia":"en:Banorte","name":"Banorte"},"geometry":{"type":"Point","coordinates":[-99.139859,19.4345535]}},{"type":"Feature","properties":{"amenity":"restaurant","cuisine":"indian","diet:vegetarian":"yes","name":"India Town"},"geometry":{"type":"Point","coordinates":[-99.1348321,19.4318972]}},{"type":"Feature","properties":{"addr:city":"Ciudad de M\u00e9xico","addr:housenumber":"49","addr:postcode":"06000","addr:street":"5 de Mayo","amenity":"bar","name":"Pata Negra"},"geometry":{"type":"Point","coordinates":[-99.1355046,19.4340038]}},{"type":"Feature","properties":{"amenity":"bank","brand":"Santander","brand:wikidata":"Q5835668","brand:wikipedia":"en:Santander Bank","name":"Santander"},"geometry":{"type":"Point","coordinates":[-99.1345905,19.4370507]}},{"type":"Feature","properties":{"amenity":"cinema","name":"Cine R\u00edo","wikidata":"Q36333539"},"geometry":{"type":"Point","coordinates":[-99.1349462,19.4369014]}},{"type":"Feature","properties":{"amenity":"bureau_de_change","name":"Casa de cambio","name:en":"Change","name:es":"CI Banco","name:fr":"Change"},"geometry":{"type":"Point","coordinates":[-99.1381706,19.4336808]}},{"type":"Feature","properties":{"amenity":"restaurant","name":"Ichiban Sushi House","name:en":"Ichiban Sushi House"},"geometry":{"type":"Point","coordinates":[-99.1397051,19.4347711]}},{"type":"Feature","properties":{"amenity":"bar","name":"La Nueva Excelencia"},"geometry":{"type":"Point","coordinates":[-99.1379675,19.4373612]}},{"type":"Feature","properties":{"amenity":"restaurant","name":"Donde To\u00f1o comida mexicana","note":"Good taste and price"},"geometry":{"type":"Point","coordinates":[-99.1388821,19.4339642]}},{"type":"Feature","properties":{"crossing":"traffic_signals","highway":"crossing"},"geometry":{"type":"Point","coordinates":[-99.1407069,19.43615]}},{"type":"Feature","properties":{"crossing":"traffic_signals","highway":"crossing"},"geometry":{"type":"Point","coordinates":[-99.1405382,19.4363485]}},{"type":"Feature","properties":{"amenity":"parking"},"geometry":{"type":"Point","coordinates":[-99.1364183,19.4319662]}},{"type":"Feature","properties":{"bus":"yes","highway":"bus_stop","name":"Madero","network":"Corredor Cero Emisiones Eje Central","operator":"Servicio de Transportes El\u00e9ctricos","public_transport":"platform"},"geometry":{"type":"Point","coordinates":[-99.1408641,19.4339391]}},{"type":"Feature","properties":{"bus":"yes","highway":"bus_stop","name":"Independencia","network":"Corredor Cero Emisiones Eje Central","operator":"Servicio de Transportes El\u00e9ctricos","public_transport":"platform"},"geometry":{"type":"Point","coordinates":[-99.1411923,19.4330095]}},{"type":"Feature","properties":{"crossing":"traffic_signals","highway":"traffic_signals"},"geometry":{"type":"Point","coordinates":[-99.1424731,19.4365728]}},{"type":"Feature","properties":{"amenity":"bureau_de_change"},"geometry":{"type":"Point","coordinates":[-99.1366105,19.4319335]}},{"type":"Feature","properties":{"amenity":"bar","cuisine":"mexican","name":"Gante"},"geometry":{"type":"Point","coordinates":[-99.1394745,19.4331199]}},{"type":"Feature","properties":{"alt_name":"Kentucky Fried Chicken","amenity":"fast_food","brand":"KFC","brand:wikidata":"Q524757","brand:wikipedia":"en:KFC","cuisine":"chicken","name":"KFC","takeaway":"yes"},"geometry":{"type":"Point","coordinates":[-99.1411563,19.4338224]}},{"type":"Feature","properties":{"addr:city":"Ciudad de M\u00e9xico","addr:housenumber":"2","addr:postcode":"06000","addr:street":"L\u00e1zaro C\u00e1rdenas","amenity":"bar","description":"On the 40th floor of the Torre Latinoamericana. Take the elevator to the 37th floor and walk up.","name":"Nivel 40 SkyBar","outdoor_seating":"no","website":"https:\/\/www.facebook.com\/Nivel40Skybar\/"},"geometry":{"type":"Point","coordinates":[-99.1407364,19.4339084]}},{"type":"Feature","properties":{"amenity":"restaurant","cuisine":"mexican;breakfast","internet_access":"wlan","name":"La casa de todos"},"geometry":{"type":"Point","coordinates":[-99.1421208,19.4333431]}},{"type":"Feature","properties":{"amenity":"cafe","name":"Cielito Querido Caf\u00e9"},"geometry":{"type":"Point","coordinates":[-99.14079,19.4334671]}},{"type":"Feature","properties":{"amenity":"restaurant","name":"Terraza Don Batiz"},"geometry":{"type":"Point","coordinates":[-99.1386512,19.4337061]}},{"type":"Feature","properties":{"amenity":"restaurant","name":"Gffjv"},"geometry":{"type":"Point","coordinates":[-99.1388701,19.4336882]}},{"type":"Feature","properties":{"addr:street":"Calle 5 de Mayo","amenity":"restaurant","cuisine":"mexican","name":"Cafeter\u00eda Samborns","name:en":"Samborns cafeteria","opening_hours":"Mo-Su 07:00-01:00"},"geometry":{"type":"Point","coordinates":[-99.1401525,19.4345725]}},{"type":"Feature","properties":{"addr:housenumber":"16","addr:street":"Calle Isabel la Cat\u00f3lica","amenity":"fast_food","name":"Taquer\u00eda Tlaquepaque"},"geometry":{"type":"Point","coordinates":[-99.1360091,19.4345388]}},{"type":"Feature","properties":{"addr:street":"Calle Tacuba","amenity":"cafe","cuisine":"sandwich;french;coffee_shop","email":"eventos@maison-kayser.com.mx","internet_access":"wlan","name":"Maison Kayser","phone":"(55) 54314282"},"geometry":{"type":"Point","coordinates":[-99.1389622,19.4359083]}},{"type":"Feature","properties":{"addr:housenumber":"2","addr:postcode":"06000","addr:street":"L\u00e1zaro C\u00e1rdenas","amenity":"restaurant","name":"Miralto"},"geometry":{"type":"Point","coordinates":[-99.1408856,19.4337117]}},{"type":"Feature","properties":{"amenity":"restaurant","name":"limosneros"},"geometry":{"type":"Point","coordinates":[-99.1380616,19.4359507]}},{"type":"Feature","properties":{"crossing":"traffic_signals","highway":"crossing"},"geometry":{"type":"Point","coordinates":[-99.1406373,19.43635]}},{"type":"Feature","properties":{"amenity":"restaurant","name":"Fonda Santa Rita"},"geometry":{"type":"Point","coordinates":[-99.1419194,19.4328505]}},{"type":"Feature","properties":{"amenity":"restaurant","diet:vegetarian":"only","name":"Los Vegetarianos","opening_hours":"Mo-Su 08:00-20:00"},"geometry":{"type":"Point","coordinates":[-99.1356727,19.4335249]}},{"type":"Feature","properties":{"highway":"crossing"},"geometry":{"type":"Point","coordinates":[-99.1414747,19.436403]}},{"type":"Feature","properties":{"addr:city":"Ciudad de M\u00e9xico","addr:housenumber":"64","addr:postcode":"06000","addr:street":"Calle Donceles","amenity":"restaurant","cuisine":"pizza","name":"Pizza del Perro Negro","opening_hours":"Mo-Su 14:00-22:00","phone":"+52 55 535 17401","website":"https:\/\/www.muertealapizzafalsa.com\/"},"geometry":{"type":"Point","coordinates":[-99.1352366,19.4363013]}},{"type":"Feature","properties":{"crossing":"traffic_signals","highway":"crossing"},"geometry":{"type":"Point","coordinates":[-99.1405843,19.4360647]}},{"type":"Feature","properties":{"crossing":"traffic_signals","highway":"crossing","traffic_signals:sound":"no"},"geometry":{"type":"Point","coordinates":[-99.140469,19.4361291]}},{"type":"Feature","properties":{"amenity":"bar","name":"Zinco Jazz Club"},"geometry":{"type":"Point","coordinates":[-99.1371396,19.4338751]}},{"type":"Feature","properties":{"amenity":"ice_cream","name":"Nieves 100% artesanales"},"geometry":{"type":"Point","coordinates":[-99.136573,19.434101]}},{"type":"Feature","properties":{"crossing":"traffic_signals","highway":"crossing"},"geometry":{"type":"Point","coordinates":[-99.1409916,19.4342592]}},{"type":"Feature","properties":{"highway":"traffic_signals"},"geometry":{"type":"Point","coordinates":[-99.1408797,19.4340756]}},{"type":"Feature","properties":{"highway":"traffic_signals"},"geometry":{"type":"Point","coordinates":[-99.1409657,19.4342946]}},{"type":"Feature","properties":{"highway":"traffic_signals"},"geometry":{"type":"Point","coordinates":[-99.141029,19.434265]}},{"type":"Feature","properties":{"crossing":"traffic_signals","highway":"crossing"},"geometry":{"type":"Point","coordinates":[-99.1408644,19.4348922]}},{"type":"Feature","properties":{"crossing":"traffic_signals","highway":"crossing"},"geometry":{"type":"Point","coordinates":[-99.1408885,19.4347487]}},{"type":"Feature","properties":{"crossing":"traffic_signals","highway":"crossing"},"geometry":{"type":"Point","coordinates":[-99.1407792,19.4347298]}},{"type":"Feature","properties":{"crossing":"traffic_signals","highway":"crossing"},"geometry":{"type":"Point","coordinates":[-99.1407579,19.4348721]}},{"type":"Feature","properties":{"crossing":"traffic_signals","crossing:island":"no","highway":"crossing","traffic_signals:sound":"no"},"geometry":{"type":"Point","coordinates":[-99.1406075,19.4347901]}},{"type":"Feature","properties":{"highway":"traffic_signals"},"geometry":{"type":"Point","coordinates":[-99.1408499,19.4349753]}},{"type":"Feature","properties":{"highway":"traffic_signals"},"geometry":{"type":"Point","coordinates":[-99.140791,19.4346491]}},{"type":"Feature","properties":{"highway":"traffic_signals"},"geometry":{"type":"Point","coordinates":[-99.1404641,19.4367717]}},{"type":"Feature","properties":{"highway":"traffic_signals"},"geometry":{"type":"Point","coordinates":[-99.1405032,19.4370666]}},{"type":"Feature","properties":{"highway":"traffic_signals"},"geometry":{"type":"Point","coordinates":[-99.1406005,19.436955]}},{"type":"Feature","properties":{"amenity":"restaurant","name":"Buffet Chino $50"},"geometry":{"type":"Point","coordinates":[-99.1425441,19.4331552]}},{"type":"Feature","properties":{"addr:housenumber":"81","addr:postcode":"06000","addr:street":"16 de Septiembre","amenity":"restaurant","brand":"Vips","brand:wikidata":"Q48783378","brand:wikipedia":"es:Vips","cuisine":"mexican","name":"Vips","opening_hours":"Mo-Su 08:00-20:00"},"geometry":{"type":"Point","coordinates":[-99.1347231,19.4318795]}},{"type":"Feature","properties":{"addr:housenumber":"349","addr:postcode":"06000","addr:street":"Calle Palma","alt_name":"Kentucky Fried Chicken","amenity":"fast_food","brand":"KFC","brand:wikidata":"Q524757","cuisine":"chicken","name":"KFC","opening_hours":"Mo-Su 10:00-22:00","takeaway":"yes"},"geometry":{"type":"Point","coordinates":[-99.135374,19.4328134]}},{"type":"Feature","properties":{"amenity":"restaurant","brand":"Vips","brand:wikidata":"Q48783378","brand:wikipedia":"es:Vips","cuisine":"mexican","name":"Vips"},"geometry":{"type":"Point","coordinates":[-99.1377996,19.433758]}},{"type":"Feature","properties":{"crossing":"traffic_signals","highway":"crossing"},"geometry":{"type":"Point","coordinates":[-99.1408688,19.4341374]}},{"type":"Feature","properties":{"crossing":"traffic_signals","highway":"crossing"},"geometry":{"type":"Point","coordinates":[-99.1409903,19.4341549]}},{"type":"Feature","properties":{"crossing":"traffic_signals","highway":"crossing"},"geometry":{"type":"Point","coordinates":[-99.1410117,19.4341583]}},{"type":"Feature","properties":{"amenity":"bank","brand":"HSBC","brand:wikidata":"Q190464","brand:wikipedia":"en:HSBC","name":"HSBC"},"geometry":{"type":"Point","coordinates":[-99.1384387,19.4346078]}},{"type":"Feature","properties":{"amenity":"toilets"},"geometry":{"type":"Point","coordinates":[-99.1346095,19.4331244]}},{"type":"Feature","properties":{"amenity":"fast_food","brand":"McDonald's","brand:wikidata":"Q38076","cuisine":"burger","name":"McDonald's","takeaway":"yes"},"geometry":{"type":"Point","coordinates":[-99.1348214,19.4353314]}},{"type":"Feature","properties":{"amenity":"bar","name":"ProCer"},"geometry":{"type":"Point","coordinates":[-99.1397534,19.4365085]}},{"type":"Feature","properties":{"amenity":"restaurant","name":"Taquer\u00eda tlaquepaque"},"geometry":{"type":"Point","coordinates":[-99.1378352,19.4344864]}},{"type":"Feature","properties":{"amenity":"restaurant","name":"Caf\u00e9 La blanca"},"geometry":{"type":"Point","coordinates":[-99.136541,19.434264]}}]}